PERSEUS-M1              
1 40039U 14033AF  26060.37588118  .00003179  00000+0  29453-3 0  9997
2 40039  97.9540   2.8381 0010207 299.6573  60.3631 14.95198308634522
POLYITAN-1              
1 40042U 14033AJ  26060.49565951  .00022590  00000+0  79967-3 0  9997
2 40042  98.1051  76.8487 0008671 151.1434 209.0285 15.29123610637111
TIGRISAT                
1 40043U 14033AK  26060.36780782  .00003179  00000+0  37347-3 0  9993
2 40043  97.7651 212.9790 0050817  69.1403 291.5242 14.84674020629628
AEROCUBE 6A             
1 40045U 14033AM  26060.44067653  .00007174  00000+0  62327-3 0  9994
2 40045  97.7108 228.6970 0039581  17.4292 342.8277 14.96700070630491
AEROCUBE 6B             
1 40046U 14033AN  26060.41146432  .00008983  00000+0  75280-3 0  9996
2 40046  97.7097 228.2446 0037776  10.3476 349.8515 14.98077117630610
CANX-4                  
1 40055U 14034C   26060.19838965  .00001337  00000+0  17972-3 0  9991
2 40055  98.3292 291.4596 0012946   4.1403 355.9913 14.81035673628547
CANX-5                  
1 40056U 14034D   26060.19805836  .00001341  00000+0  18004-3 0  9995
2 40056  98.3295 291.4963 0012963   4.3960 355.7363 14.81052360619356
UKUBE-1                 
1 40074U 14037F   26060.47569357  .00011428  00000+0  67741-3 0  9993
2 40074  98.4214  52.6035 0002602 119.6721 240.4766 15.11569809632277
BRITE-PL2 (HEWELIUSZ)   
1 40119U 14049B   26060.30201127  .00002887  00000+0  27485-3 0  9996
2 40119  97.8976 171.5846 0015358 107.1507 253.1396 14.94126309625335
AEROCUBE 5C             
1 40965U 15058B   26060.46091211  .00004795  00000+0  42760-3 0  9997
2 40965  64.7656 237.5531 0131196 105.7834 255.7790 14.90765878349595
AEROCUBE 7              
1 40966U 15058C   26060.42165438  .00006787  00000+0  55104-3 0  9996
2 40966  64.7611 222.1265 0121200 104.9415 256.5155 14.94779064349840
FOX-1A (AO-85)          
1 40967U 15058D   26059.93594435  .00004045  00000+0  36968-3 0  9996
2 40967  64.7738 255.2193 0129360  99.4296 262.1465 14.90263896 97437
SINOD-D 1               
1 40968U 15058E   26060.47872879  .00006625  00000+0  54053-3 0  9990
2 40968  64.7733 235.9716 0117667  96.6228 264.8295 14.94932859100554
SNAP-3 ALICE            
1 40970U 15058G   26060.47373465  .00061321  00000+0  13662-2 0  9994
2 40970  64.7566 111.0077 0037530  72.5984 287.9252 15.42487239100186
LMRST-SAT               
1 40971U 15058H   26060.46831433  .00004523  00000+0  41326-3 0  9998
2 40971  64.7741 249.7047 0131479 101.1666 260.4260 14.89901802 97504
SNAP-3 EDDIE            
1 40972U 15058J   26060.47577875  .00059005  00000+0  12692-2 0  9995
2 40972  64.7486 102.4418 0038703  77.3934 283.1528 15.43488241102319
PROPCUBE 3              
1 40973U 15058K   26060.42871346  .00005928  00000+0  49774-3 0  9998
2 40973  64.7670 229.0068 0124056 102.9979 258.5019 14.93420391 98707
BISONSAT                
1 40974U 15058L   26060.49842715  .00014512  00000+0  75431-3 0  9992
2 40974  64.7610 161.1386 0079595  94.7715 266.2503 15.13540595 99307
SNAP-3 JIMI             
1 40975U 15058M   26060.50354103  .00009074  00000+0  64053-3 0  9999
2 40975  64.7647 200.1493 0106006  99.9730 261.3370 15.00980335 98058
PROPCUBE 1 (FLORA)      
1 40976U 15058N   26060.52653004  .00003957  00000+0  37730-3 0  9990
2 40976  64.7735 268.7426 0130595 103.4009 258.1697 14.88559685100238
SINOD-D 3               
1 40977U 15058P   26060.50714396  .00006027  00000+0  51609-3 0  9993
2 40977  64.7709 251.8443 0119087 101.5157 259.9356 14.93096061 98673
HORYU-4                 
1 41340U 16012D   26060.47972656  .00093001  00000+0  10430-2 0  9994
2 41340  30.9916 125.3653 0001743  59.5122 300.5703 15.61253665553827
RAVAN                   
1 41849U 16067B   26060.22782276  .00041125  00000+0  86017-3 0  9993
2 41849  98.0068 298.0718 0007193  33.0732 327.0963 15.45338563510977
CELTEE 1                
1 41850U 16067C   26060.51146876  .00007011  00000+0  34397-3 0  9997
2 41850  98.0829 279.7248 0000516 120.5268 239.6016 15.18458769509534
OPTICUBE 04             
1 41851U 16067D   26060.48733403  .00003135  00000+0  20149-3 0  9995
2 41851  98.0815 267.1047 0016997 119.5447 240.7478 15.09128592508920
AEROCUBE 8D             
1 41852U 16067E   26060.51411928  .00010189  00000+0  44035-3 0  9992
2 41852  98.0847 282.5228 0004303 132.3242 227.8358 15.22691064509672
AEROCUBE 8C             
1 41853U 16067F   26060.48999676  .00010592  00000+0  45448-3 0  9997
2 41853  98.0713 279.8675 0006698  76.4254 283.7726 15.22911768509665
CORVUS BC2              
1 42846U 17042X   26060.41964355  .00005163  00000+0  36221-3 0  9990
2 42846  97.3917 226.0857 0014286 119.3215 240.9441 15.05507621470844
CORVUS BC1              
1 42847U 17042Y   26060.42735476  .00003827  00000+0  26803-3 0  9992
2 42847  97.3953 226.8330 0013469  97.3188 262.9571 15.05729915470878
MAKERSAT 0              
1 43016U 17073D   26060.44853087  .00027008  00000+0  82572-3 0  9998
2 43016  97.4806 302.4013 0116495 295.4691  63.4532 15.27328315449990
SIRION PATHFINDER-2     
1 43759U 18099B   26060.38724075  .00006099  00000+0  34483-3 0  9993
2 43759  97.4415 112.0097 0007723 320.9885  39.0789 15.13417602396312
