OBJECT_NAME,OBJECT_ID,EPOCH,MEAN_MOTION,ECCENTRICITY,INCLINATION,RA_OF_ASC_NODE,ARG_OF_PERICENTER,MEAN_ANOMALY,EPHEMERIS_TYPE,CLASSIFICATION_TYPE,NORAD_CAT_ID,ELEMENT_SET_NO,REV_AT_EPOCH,BSTAR,MEAN_MOTION_DOT,MEAN_MOTION_DDOT
PERSEUS-M1,2014-033AF,2026-03-01T09:01:16.133952,14.95198308,.0010207,97.9540,2.8381,299.6573,60.3631,0,U,40039,999,63452,.29453E-3,.3179E-4,0
POLYITAN-1,2014-033AJ,2026-03-01T11:53:44.981664,15.29123610,.0008671,98.1051,76.8487,151.1434,209.0285,0,U,40042,999,63711,.79967E-3,.2259E-3,0
TIGRISAT,2014-033AK,2026-03-01T08:49:38.595648,14.84674020,.0050817,97.7651,212.9790,69.1403,291.5242,0,U,40043,999,62962,.37347E-3,.3179E-4,0
AEROCUBE 6A,2014-033AM,2026-03-01T10:34:34.452192,14.96700070,.0039581,97.7108,228.6970,17.4292,342.8277,0,U,40045,999,63049,.62327E-3,.7174E-4,0
AEROCUBE 6B,2014-033AN,2026-03-01T09:52:30.517248,14.98077117,.0037776,97.7097,228.2446,10.3476,349.8515,0,U,40046,999,63061,.7528E-3,.8983E-4,0
CANX-4,2014-034C,2026-03-01T04:45:40.865760,14.81035673,.0012946,98.3292,291.4596,4.1403,355.9913,0,U,40055,999,62854,.17972E-3,.1337E-4,0
CANX-5,2014-034D,2026-03-01T04:45:12.242304,14.81052360,.0012963,98.3295,291.4963,4.3960,355.7363,0,U,40056,999,61935,.18004E-3,.1341E-4,0
UKUBE-1,2014-037F,2026-03-01T11:24:59.924448,15.11569809,.0002602,98.4214,52.6035,119.6721,240.4766,0,U,40074,999,63227,.67741E-3,.11428E-3,0
BRITE-PL2 (HEWELIUSZ),2014-049B,2026-03-01T07:14:53.773728,14.94126309,.0015358,97.8976,171.5846,107.1507,253.1396,0,U,40119,999,62533,.27485E-3,.2887E-4,0
AEROCUBE 5C,2015-058B,2026-03-01T11:03:42.806304,14.90765878,.0131196,64.7656,237.5531,105.7834,255.7790,0,U,40965,999,34959,.4276E-3,.4795E-4,0
AEROCUBE 7,2015-058C,2026-03-01T10:07:10.938432,14.94779064,.01212,64.7611,222.1265,104.9415,256.5155,0,U,40966,999,34984,.55104E-3,.6787E-4,0
FOX-1A (AO-85),2015-058D,2026-02-28T22:27:45.591840,14.90263896,.012936,64.7738,255.2193,99.4296,262.1465,0,U,40967,999,9743,.36968E-3,.4045E-4,0
SINOD-D 1,2015-058E,2026-03-01T11:29:22.167456,14.94932859,.0117667,64.7733,235.9716,96.6228,264.8295,0,U,40968,999,10055,.54053E-3,.6625E-4,0
SNAP-3 ALICE,2015-058G,2026-03-01T11:22:10.673760,15.42487239,.003753,64.7566,111.0077,72.5984,287.9252,0,U,40970,999,10018,.13662E-2,.61321E-3,0
LMRST-SAT,2015-058H,2026-03-01T11:14:22.358112,14.89901802,.0131479,64.7741,249.7047,101.1666,260.4260,0,U,40971,999,9750,.41326E-3,.4523E-4,0
SNAP-3 EDDIE,2015-058J,2026-03-01T11:25:07.284000,15.43488241,.0038703,64.7486,102.4418,77.3934,283.1528,0,U,40972,999,10231,.12692E-2,.59005E-3,0
PROPCUBE 3,2015-058K,2026-03-01T10:17:20.842944,14.93420391,.0124056,64.7670,229.0068,102.9979,258.5019,0,U,40973,999,9870,.49774E-3,.5928E-4,0
BISONSAT,2015-058L,2026-03-01T11:57:44.105760,15.13540595,.0079595,64.7610,161.1386,94.7715,266.2503,0,U,40974,999,9930,.75431E-3,.14512E-3,0
SNAP-3 JIMI,2015-058M,2026-03-01T12:05:05.944992,15.00980335,.0106006,64.7647,200.1493,99.9730,261.3370,0,U,40975,999,9805,.64053E-3,.9074E-4,0
PROPCUBE 1 (FLORA),2015-058N,2026-03-01T12:38:12.195456,14.88559685,.0130595,64.7735,268.7426,103.4009,258.1697,0,U,40976,999,10023,.3773E-3,.3957E-4,0
SINOD-D 3,2015-058P,2026-03-01T12:10:17.238144,14.93096061,.0119087,64.7709,251.8443,101.5157,259.9356,0,U,40977,999,9867,.51609E-3,.6027E-4,0
HORYU-4,2016-012D,2026-03-01T11:30:48.374784,15.61253665,.0001743,30.9916,125.3653,59.5122,300.5703,0,U,41340,999,55382,.1043E-2,.93001E-3,0
RAVAN,2016-067B,2026-03-01T05:28:03.886464,15.45338563,.0007193,98.0068,298.0718,33.0732,327.0963,0,U,41849,999,51097,.86017E-3,.41125E-3,0
CELTEE 1,2016-067C,2026-03-01T12:16:30.900864,15.18458769,.0000516,98.0829,279.7248,120.5268,239.6016,0,U,41850,999,50953,.34397E-3,.7011E-4,0
OPTICUBE 04,2016-067D,2026-03-01T11:41:45.660192,15.09128592,.0016997,98.0815,267.1047,119.5447,240.7478,0,U,41851,999,50892,.20149E-3,.3135E-4,0
AEROCUBE 8D,2016-067E,2026-03-01T12:20:19.905792,15.22691064,.0004303,98.0847,282.5228,132.3242,227.8358,0,U,41852,999,50967,.44035E-3,.10189E-3,0
AEROCUBE 8C,2016-067F,2026-03-01T11:45:35.720064,15.22911768,.0006698,98.0713,279.8675,76.4254,283.7726,0,U,41853,999,50966,.45448E-3,.10592E-3,0
CORVUS BC2,2017-042X,2026-03-01T10:04:17.202720,15.05507621,.0014286,97.3917,226.0857,119.3215,240.9441,0,U,42846,999,47084,.36221E-3,.5163E-4,0
CORVUS BC1,2017-042Y,2026-03-01T10:15:23.451264,15.05729915,.0013469,97.3953,226.8330,97.3188,262.9571,0,U,42847,999,47087,.26803E-3,.3827E-4,0
MAKERSAT 0,2017-073D,2026-03-01T10:45:53.067168,15.27328315,.0116495,97.4806,302.4013,295.4691,63.4532,0,U,43016,999,44999,.82572E-3,.27008E-3,0
SIRION PATHFINDER-2,2018-099B,2026-03-01T09:17:37.600800,15.13417602,.0007723,97.4415,112.0097,320.9885,39.0789,0,U,43759,999,39631,.34483E-3,.6099E-4,0
